IRIDIUM 112             
1 41925U 17003J   25159.31382326  .00000216  00000+0  70207-4 0  9990
2 41925  86.3973 244.4755 0002167  97.0712 263.0731 14.34218072439686
IRIDIUM 111             
1 41926U 17003K   25159.30113827  .00000205  00000+0  66273-4 0  9994
2 41926  86.3976 244.5433 0002305  94.1660 265.9800 14.34217928439663
IRIDIUM 113             
1 42803U 17039A   25159.35087045  .00000084  00000+0  22902-4 0  9991
2 42803  86.3966 118.4515 0002201  91.6900 268.4548 14.34217874417608
IRIDIUM 123             
1 42804U 17039B   25159.39234907 -.00000030  00000+0 -17754-4 0  9999
2 42804  86.3982 149.8910 0002562  86.8488 273.3000 14.34217191416374
IRIDIUM 120             
1 42805U 17039C   25159.41429717  .00000269  00000+0  89079-4 0  9999
2 42805  86.3955 118.2560 0002467  77.8159 282.3313 14.34217240417604
IRIDIUM 115             
1 42806U 17039D   25159.42535492  .00000316  00000+0  87853-4 0  9990
2 42806  86.4492 118.3287 0003064  83.7947 276.3603 14.43278687420357
IRIDIUM 118             
1 42807U 17039E   25159.42406172  .00000055  00000+0  12614-4 0  9996
2 42807  86.3977 149.8773 0002256  90.3458 269.7996 14.34217970416373
IRIDIUM 117             
1 42808U 17039F   25159.44308555  .00000108  00000+0  31435-4 0  9996
2 42808  86.3975 149.8307 0002575  90.5324 269.6167 14.34217697416402
